H1 CPF  1  DGF 2022 07 14 11  6951 larets     NONE      
H2   304206 5557    27944 2022 07 14 00 00 00 2022 07 21 00 00 00    30 1 1  0 0 0
H5  0.0650
H9
10 0 59777  72000.000000  0        446248.285      -6900211.746       1394230.509
10 0 59777  72030.000000  0        400883.795      -6943936.668       1174688.777
10 0 59777  72060.000000  0        354935.685      -6980390.386        953941.927
10 0 59777  72090.000000  0        308482.665      -7009533.588        732216.458
10 0 59777  72120.000000  0        261604.115      -7031334.864        509739.869
10 0 59777  72150.000000  0        214379.964      -7045770.739        286740.414
10 0 59777  72180.000000  0        166890.575      -7052825.698         63446.861
10 0 59777  72210.000000  0        119216.628      -7052492.200       -159911.757
10 0 59777  72240.000000  0         71438.996      -7044770.685       -383106.387
10 0 59777  72270.000000  0         23638.627      -7029669.569       -605908.195
10 0 59777  72300.000000  0        -24103.572      -7007205.230       -828088.817
10 0 59777  72330.000000  0        -71706.858      -6977401.986      -1049420.597
10 0 59777  72360.000000  0       -119090.765      -6940292.060      -1269676.829
10 0 59777  72390.000000  0       -166175.231      -6895915.541      -1488631.997
10 0 59777  72420.000000  0       -212880.703      -6844320.335      -1706062.009
10 0 59777  72450.000000  0       -259128.265      -6785562.107      -1921744.440
10 0 59777  72480.000000  0       -304839.744      -6719704.212      -2135458.764
10 0 59777  72510.000000  0       -349937.830      -6646817.617      -2346986.583
10 0 59777  72540.000000  0       -394346.187      -6566980.814      -2556111.861
10 0 59777  72570.000000  0       -437989.564      -6480279.728      -2762621.147
10 0 59777  72600.000000  0       -480793.904      -6386807.611      -2966303.797
10 0 59777  72630.000000  0       -522686.454      -6286664.932      -3166952.193
10 0 59777  72660.000000  0       -563595.869      -6179959.257      -3364361.960
10 0 59777  72690.000000  0       -603452.315      -6066805.118      -3558332.173
10 0 59777  72720.000000  0       -642187.570      -5947323.876      -3748665.568
10 0 59777  72750.000000  0       -679735.123      -5821643.578      -3935168.733
10 0 59777  72780.000000  0       -716030.269      -5689898.804      -4117652.312
10 0 59777  72810.000000  0       -751010.200      -5552230.514      -4295931.182
10 0 59777  72840.000000  0       -784614.099      -5408785.881      -4469824.647
10 0 59777  72870.000000  0       -816783.222      -5259718.127      -4639156.613
10 0 59777  72900.000000  0       -847460.988      -5105186.342      -4803755.762
10 0 59777  72930.000000  0       -876593.055      -4945355.308      -4963455.720
10 0 59777  72960.000000  0       -904127.401      -4780395.307      -5118095.219
10 0 59777  72990.000000  0       -930014.395      -4610481.931      -5267518.251
10 0 59777  73020.000000  0       -954206.870      -4435795.886      -5411574.224
10 0 59777  73050.000000  0       -976660.188      -4256522.791      -5550118.097
10 0 59777  73080.000000  0       -997332.305      -4072852.967      -5683010.524
10 0 59777  73110.000000  0      -1016183.831      -3884981.232      -5810117.984
10 0 59777  73140.000000  0      -1033178.084      -3693106.685      -5931312.903
10 0 59777  73170.000000  0      -1048281.144      -3497432.490      -6046473.778
10 0 59777  73200.000000  0      -1061461.903      -3298165.649      -6155485.285
10 0 59777  73230.000000  0      -1072692.108      -3095516.784      -6258238.385
10 0 59777  73260.000000  0      -1081946.402      -2889699.901      -6354630.424
10 0 59777  73290.000000  0      -1089202.363      -2680932.171      -6444565.222
10 0 59777  73320.000000  0      -1094440.533      -2469433.689      -6527953.159
10 0 59777  73350.000000  0      -1097644.454      -2255427.246      -6604711.255
10 0 59777  73380.000000  0      -1098800.689      -2039138.095      -6674763.242
10 0 59777  73410.000000  0      -1097898.843      -1820793.707      -6738039.629
10 0 59777  73440.000000  0      -1094931.585      -1600623.541      -6794477.765
10 0 59777  73470.000000  0      -1089894.660      -1378858.798      -6844021.892
10 0 59777  73500.000000  0      -1082786.898      -1155732.182      -6886623.191
10 0 59777  73530.000000  0      -1073610.221       -931477.659      -6922239.823
10 0 59777  73560.000000  0      -1062369.645       -706330.209      -6950836.964
10 0 59777  73590.000000  0      -1049073.276       -480525.588      -6972386.831
10 0 59777  73620.000000  0      -1033732.301       -254300.082      -6986868.697
10 0 59777  73650.000000  0      -1016360.981        -27890.272      -6994268.907
10 0 59777  73680.000000  0       -996976.637        198467.208      -6994580.894
10 0 59777  73710.000000  0       -975599.628        424535.917      -6987805.174
10 0 59777  73740.000000  0       -952253.336        650079.846      -6973949.354
10 0 59777  73770.000000  0       -926964.134        874863.664      -6953028.111
10 0 59777  73800.000000  0       -899761.358       1098652.954      -6925063.180
10 0 59777  73830.000000  0       -870677.276       1321214.455      -6890083.323
10 0 59777  73860.000000  0       -839747.051       1542316.292      -6848124.308
10 0 59777  73890.000000  0       -807008.700       1761728.213      -6799228.874
10 0 59777  73920.000000  0       -772503.051       1979221.829      -6743446.691
10 0 59777  73950.000000  0       -736273.691       2194570.843      -6680834.312
10 0 59777  73980.000000  0       -698366.915       2407551.286      -6611455.121
10 0 59777  74010.000000  0       -658831.673       2617941.743      -6535379.277
10 0 59777  74040.000000  0       -617719.507       2825523.581      -6452683.643
10 0 59777  74070.000000  0       -575084.492       3030081.180      -6363451.720
10 0 59777  74100.000000  0       -530983.170       3231402.153      -6267773.563
10 0 59777  74130.000000  0       -485474.473       3429277.563      -6165745.696
10 0 59777  74160.000000  0       -438619.657       3623502.141      -6057471.021
10 0 59777  74190.000000  0       -390482.223       3813874.491      -5943058.721
10 0 59777  74220.000000  0       -341127.837       4000197.305      -5822624.157
10 0 59777  74250.000000  0       -290624.248       4182277.563      -5696288.765
10 0 59777  74280.000000  0       -239041.206       4359926.741      -5564179.941
10 0 59777  74310.000000  0       -186450.368       4532961.007      -5426430.917
10 0 59777  74340.000000  0       -132925.213       4701201.413      -5283180.635
10 0 59777  74370.000000  0        -78540.942       4864474.090      -5134573.618
10 0 59777  74400.000000  0        -23374.387       5022610.424      -4980759.827
10 0 59777  74430.000000  0         32496.093       5175447.241      -4821894.518
10 0 59777  74460.000000  0         88990.710       5322826.981      -4658138.095
10 0 59777  74490.000000  0        146028.354       5464597.863      -4489655.950
10 0 59777  74520.000000  0        203526.701       5600614.049      -4316618.305
10 0 59777  74550.000000  0        261402.316       5730735.801      -4139200.043
10 0 59777  74580.000000  0        319570.767       5854829.631      -3957580.540
10 0 59777  74610.000000  0        377946.739       5972768.442      -3771943.485
10 0 59777  74640.000000  0        436444.142       6084431.667      -3582476.708
10 0 59777  74670.000000  0        494976.234       6189705.403      -3389371.984
10 0 59777  74700.000000  0        553455.733       6288482.537      -3192824.851
10 0 59777  74730.000000  0        611794.936       6380662.856      -2993034.409
10 0 59777  74760.000000  0        669905.841       6466153.164      -2790203.124
10 0 59777  74790.000000  0        727700.264       6544867.382      -2584536.624
10 0 59777  74820.000000  0        785089.964       6616726.644      -2376243.491
10 0 59777  74850.000000  0        841986.763       6681659.382      -2165535.049
10 0 59777  74880.000000  0        898302.666       6739601.405      -1952625.150
10 0 59777  74910.000000  0        953949.989       6790495.973      -1737729.956
10 0 59777  74940.000000  0       1008841.476       6834293.853      -1521067.720
10 0 59777  74970.000000  0       1062890.424       6870953.379      -1302858.558
10 0 59777  75000.000000  0       1116010.809       6900440.496      -1083324.229
10 0 59777  75030.000000  0       1168117.401       6922728.795       -862687.902
10 0 59777  75060.000000  0       1219125.895       6937799.542       -641173.925
10 0 59777  75090.000000  0       1268953.023       6945641.697       -419007.596
10 0 59777  75120.000000  0       1317516.680       6946251.919       -196414.929
10 0 59777  75150.000000  0       1364736.036       6939634.574         26377.581
10 0 59777  75180.000000  0       1410531.657       6925801.719        249143.191
10 0 59777  75210.000000  0       1454825.617       6904773.093        471655.145
10 0 59777  75240.000000  0       1497541.612       6876576.086        693686.904
10 0 59777  75270.000000  0       1538605.071       6841245.712        915012.387
10 0 59777  75300.000000  0       1577943.266       6798824.562       1135406.200
10 0 59777  75330.000000  0       1615485.420       6749362.759       1354643.871
10 0 59777  75360.000000  0       1651162.812       6692917.896       1572502.083
10 0 59777  75390.000000  0       1684908.881       6629554.971       1788758.908
10 0 59777  75420.000000  0       1716659.326       6559346.307       2003194.032
10 0 59777  75450.000000  0       1746352.200       6482371.473       2215588.986
10 0 59777  75480.000000  0       1773928.011       6398717.187       2425727.369
10 0 59777  75510.000000  0       1799329.807       6308477.222       2633395.073
10 0 59777  75540.000000  0       1822503.274       6211752.295       2838380.505
10 0 59777  75570.000000  0       1843396.812       6108649.955       3040474.808
99
